OBJECT_NAME,OBJECT_ID,EPOCH,MEAN_MOTION,ECCENTRICITY,INCLINATION,RA_OF_ASC_NODE,ARG_OF_PERICENTER,MEAN_ANOMALY,EPHEMERIS_TYPE,CLASSIFICATION_TYPE,NORAD_CAT_ID,ELEMENT_SET_NO,REV_AT_EPOCH,BSTAR,MEAN_MOTION_DOT,MEAN_MOTION_DDOT
ORBCOMM FM06,1997-084G,2026-07-11T08:41:53.132064,14.47622091,.0001265,45.0144,296.3278,220.9817,182.2586,0,U,25118,999,49789,.19501E-3,.58E-5,0
ORBCOMM FM04,1998-007C,2026-07-11T00:19:35.112576,14.35779942,.0041897,107.9632,218.4592,283.9924,75.6560,0,U,25159,999,48001,.164E-3,.346E-5,0
ORBCOMM FM19,1998-046C,2026-07-11T04:15:07.899264,14.39537016,.0003404,44.9929,129.5229,36.9057,95.2958,0,U,25415,999,46023,.21254E-3,.526E-5,0
ORBCOMM FM20,1998-046D,2026-07-10T05:10:48.925056,14.38095254,.00018472,44.9930,142.2702,332.3533,27.7217,0,U,25416,999,46010,.17620595E-3,.397E-5,0
ORBCOMM FM27,1998-053G,2026-07-11T11:36:25.087680,14.39181226,.0002441,45.0035,219.9499,278.1343,81.9229,0,U,25481,999,45373,.1526E-3,.334E-5,0
ORBCOMM FM32,1999-065C,2026-07-10T23:52:50.427840,14.37164512,.0005292,45.0156,60.5450,171.5965,188.4973,0,U,25982,999,39051,.15528E-3,.324E-5,0
ORBCOMM FM109,2014-040A,2026-07-11T09:52:04.973088,14.58870325,.0001649,47.0045,336.9566,310.9227,49.1516,0,U,40086,999,63788,.67459E-4,.148E-5,0
ORBCOMM FM110,2015-081D,2026-07-11T05:03:19.467072,14.58915231,.0003416,47.0010,247.8514,205.8234,154.2482,0,U,41182,999,56113,.80966E-4,.212E-5,0
ORBCOMM FM118,2015-081E,2026-07-10T15:05:16.975680,14.58901793,.0002652,47.0030,250.9400,164.1790,195.9179,0,U,41183,999,56115,.59776E-4,.111E-5,0
ORBCOMM FM112,2015-081F,2026-07-11T05:58:44.266080,14.58935042,.0003891,46.9978,156.4607,312.3848,47.6708,0,U,41184,999,56246,.11894E-3,.392E-5,0
ORBCOMM FM113,2015-081G,2026-07-11T07:04:52.935168,14.58879671,.0002407,46.9996,156.6323,307.2062,52.8604,0,U,41185,999,56245,.70748E-4,.163E-5,0
ORBCOMM FM108,2015-081J,2026-07-11T01:14:24.584352,14.58906507,.0002852,47.0051,69.3634,307.2078,52.8547,0,U,41187,999,56356,.97793E-4,.291E-5,0
ORBCOMM FM117,2015-081K,2026-07-11T00:25:00.895008,14.58893758,.0003288,47.0015,68.1537,313.4287,46.6324,0,U,41188,999,56360,.94009E-4,.273E-5,0
ORBCOMM FM116,2015-081L,2026-07-11T06:30:55.734624,14.58903266,.000138,47.0011,156.7408,218.1214,141.9574,0,U,41189,999,56245,.53499E-4,.82E-6,0
